GPS BIIA-10 (PRN 32)    
1 20959U 90103A   15336.35318030  .00000033  00000-0  00000+0 0  9994
2 20959  54.2490 187.4326 0113309   9.4644 350.8181  2.00566177183211
GPS BIIR-2  (PRN 13)    
1 24876U 97035A   15336.16780667 -.00000045  00000-0  00000+0 0  9999
2 24876  55.7309 249.3060 0044395 117.0137 243.4823  2.00562202134538
GPS BIIR-3  (PRN 11)    
1 25933U 99055A   15336.40932617  .00000001  00000-0  00000+0 0  9990
2 25933  51.2759 102.3618 0160742  84.9864  12.5322  2.00566577118354
GPS BIIR-4  (PRN 20)    
1 26360U 00025A   15336.44945921  .00000044  00000-0  00000+0 0  9997
2 26360  53.0687 178.3587 0048108  72.8090 158.4313  2.00563438114040
GPS BIIR-5  (PRN 28)    
1 26407U 00040A   15336.30327164 -.00000086  00000-0  00000+0 0  9991
2 26407  56.6916   7.0813 0202078 265.9131 136.8294  2.00561039112721
GPS BIIR-6  (PRN 14)    
1 26605U 00071A   15336.53286475 -.00000046  00000-0  00000+0 0  9995
2 26605  55.3001 247.2360 0085713 248.9966 254.9961  2.00561389110324
GPS BIIR-7  (PRN 18)    
1 26690U 01004A   15336.40625419  .00000040  00000-0  00000+0 0  9990
2 26690  52.9981 181.3437 0165889 249.8651 255.7025  2.00566143108729
GPS BIIR-8  (PRN 16)    
1 27663U 03005A   15336.20533519 -.00000086  00000-0  00000+0 0  9992
2 27663  56.7683   6.7899 0081563  16.2814  80.2597  2.00565170 94083
GPS BIIR-9  (PRN 21)    
1 27704U 03010A   15336.56823975  .00000041  00000-0  00000+0 0  9991
2 27704  53.5809 121.6021 0229630 253.7195  64.9521  2.00558495 92892
GPS BIIR-10 (PRN 22)    
1 28129U 03058A   15336.25170662  .00000038  00000-0  00000+0 0  9995
2 28129  52.8741 181.3974 0081940 243.3263 115.8943  2.00563527 87588
GPS BIIR-11 (PRN 19)    
1 28190U 04009A   15336.42289792 -.00000059  00000-0  00000+0 0  9998
2 28190  55.6681  68.2617 0111667  37.0984  56.6171  2.00388722 85760
GPS BIIR-12 (PRN 23)    
1 28361U 04023A   15336.23214131 -.00000043  00000-0  00000+0 0  9991
2 28361  54.2648 242.9359 0105000 210.9620 329.6698  2.00552571 83844
GPS BIIR-13 (PRN 02)    
1 28474U 04045A   15336.53198873  .00000040  00000-0  00000+0 0  9993
2 28474  53.9743 120.8443 0152301 234.0344 165.0005  2.00562985 81218
GPS BIIRM-1 (PRN 17)    
1 28874U 05038A   15336.41904162 -.00000063  00000-0  00000+0 0  9999
2 28874  55.8360  65.4465 0109508 246.5981 176.3367  2.00572165 74615
GPS BIIRM-2 (PRN 31)    
1 29486U 06042A   15336.57052140 -.00000056  00000-0  00000+0 0  9994
2 29486  55.7630 304.7500 0084118 330.6563 124.5191  2.00567047 67337
GPS BIIRM-3 (PRN 12)    
1 29601U 06052A   15336.38266627 -.00000084  00000-0  00000+0 0  9991
2 29601  56.7383   5.7094 0054304  34.5484 325.8509  2.00576673 66247
GPS BIIRM-4 (PRN 15)    
1 32260U 07047A   15336.20314574 -.00000041  00000-0  00000+0 0  9990
2 32260  53.3948 239.7810 0077341  23.8535 336.5584  2.00553010 59627
GPS BIIRM-5 (PRN 29)    
1 32384U 07062A   15336.55682545 -.00000063  00000-0  00000+0 0  9992
2 32384  55.8881  65.9880 0010376 316.1109  73.3550  2.00566257 58369
GPS BIIRM-6 (PRN 07)    
1 32711U 08012A   15336.11394086 -.00000056  00000-0  00000+0 0  9996
2 32711  55.4851 304.2773 0091262 207.7486 151.7575  2.00562243 56549
GPS BIIRM-8 (PRN 05)    
1 35752U 09043A   15336.53405293  .00000042  00000-0  00000+0 0  9992
2 35752  54.2236 182.3270 0044550  24.6352 308.5323  2.00561535 46123
GPS BIIF-1  (PRN 25)    
1 36585U 10022A   15334.17684171 -.00000088  00000-0  00000+0 0  9999
2 36585  56.0715   2.9997 0046009  38.2700 137.1903  2.00573340 40325
GPS BIIF-2  (PRN 01)    
1 37753U 11036A   15336.41039910  .00000046  00000-0  00000+0 0  9990
2 37753  55.1946 123.2371 0047607  25.9843  47.5212  2.00565481 32053
GPS BIIF-3  (PRN 24)    
1 38833U 12053A   15336.29787335 -.00000059  00000-0  00000+0 0  9992
2 38833  54.5185 301.7426 0037707  14.0582 346.0409  2.00566783 23134
GPS BIIF-4  (PRN 27)    
1 39166U 13023A   15336.15572998 -.00000066  00000-0  00000+0 0  9990
2 39166  55.5453  62.6565 0027567  10.3194 349.7573  2.00559601 18655
GPS BIIF-5  (PRN 30)    
1 39533U 14008A   15335.65663895 -.00000059  00000-0  00000+0 0  9995
2 39533  54.6707 306.9698 0016795 187.9781 171.9900  2.00564353 13003
GPS BIIF-6  (PRN 06)    
1 39741U 14026A   15336.43326781  .00000046  00000-0  00000+0 0  9998
2 39741  55.1864 122.7516 0003098 225.0448 134.9152  2.00573256 11304
GPS BIIF-7  (PRN 09)    
1 40105U 14045A   15336.02699489 -.00000041  00000-0  00000+0 0  9994
2 40105  54.7820 242.5505 0002668 139.4134 220.6587  2.00562196  9750
GPS BIIF-8  (PRN 03)    
1 40294U 14068A   15336.39006078  .00000042  00000-0  00000+0 0  9994
2 40294  54.9603 182.8788 0004790 213.8857 146.1486  2.00577842  7972
GPS BIIF-9  (PRN 26)    
1 40534U 15013A   15336.03322854 -.00000087  00000-0  00000+0 0  9996
2 40534  55.0432   2.5899 0005758 318.6490  41.3504  2.00563932  5031
GPS BIIF-10  (PRN 08)   
1 40730U 15033A   15336.19455023 -.00000067  00000-0  00000+0 0  9996
2 40730  55.0822  62.5814 0018186 267.4061  92.4060  2.00570853  2793
GPS BIIF-11  (PRN 10)   
1 41019U 15062A   15322.16636120  .00000057  00000-0  00000+0 0  9998
2 41019  54.9762 183.1958 0008830 206.1999 153.8410  1.97373849   340
